[{"OBJECT_NAME":"STARLINK-5786","OBJECT_ID":"2023-042AY","EPOCH":"2026-03-09T22:00:01.999584","MEAN_MOTION":15.04557631,"ECCENTRICITY":5.951e-5,"INCLINATION":43.0009,"RA_OF_ASC_NODE":41.5614,"ARG_OF_PERICENTER":298.166,"MEAN_ANOMALY":217.9414,"EPHEMERIS_TYPE":0,"CLASSIFICATION_TYPE":"U","NORAD_CAT_ID":56032,"ELEMENT_SET_NO":999,"REV_AT_EPOCH":577,"BSTAR":0.0035088306,"MEAN_MOTION_DOT":0.00050174,"MEAN_MOTION_DDOT":0},{"OBJECT_NAME":"FENGYUN 1C DEB","OBJECT_ID":"1999-025CXF","EPOCH":"2026-03-07T13:12:42.532128","MEAN_MOTION":14.81371774,"ECCENTRICITY":0.0143567,"INCLINATION":98.862,"RA_OF_ASC_NODE":185.4298,"ARG_OF_PERICENTER":249.2966,"MEAN_ANOMALY":109.2805,"EPHEMERIS_TYPE":0,"CLASSIFICATION_TYPE":"U","NORAD_CAT_ID":32314,"ELEMENT_SET_NO":999,"REV_AT_EPOCH":98685,"BSTAR":0.0017862,"MEAN_MOTION_DOT":0.00016648,"MEAN_MOTION_DDOT":0}]
